H1 CPF 01  gfz 2021 11 18 13  8222 terrasarx 
H2 0702601  6201 31698    2021 11 18 12 59 42 2021 11 23 00 00 42   120 1 1  0 0 0
H9
10 0 59538   6462.000000  0    3015840.899   4938569.084  -3746357.928
10 0 59538   6582.000000  0    2893415.812   4380765.537  -4468084.120
10 0 59538   6702.000000  0    2710266.842   3749449.430  -5111554.999
10 0 59538   6822.000000  0    2468448.092   3056713.791  -5665593.525
10 0 59538   6942.000000  0    2171242.604   2315644.283  -6120602.843
10 0 59538   7062.000000  0    1823115.969   1540067.832  -6468721.562
10 0 59538   7182.000000  0    1429647.917    744294.302  -6703947.426
10 0 59538   7302.000000  0     997442.980    -57144.493  -6822231.146
10 0 59538   7422.000000  0     534019.519   -849755.703  -6821539.163
10 0 59538   7542.000000  0      47680.781  -1619341.713  -6701883.090
10 0 59538   7662.000000  0    -452629.538  -2352246.828  -6465319.119
10 0 59538   7782.000000  0    -957487.554  -3035594.574  -6115918.350
10 0 59538   7902.000000  0   -1457162.299  -3657511.800  -5659703.533
10 0 59538   8022.000000  0   -1941798.540  -4207334.489  -5104555.642
10 0 59538   8142.000000  0   -2401608.085  -4675794.868  -4460090.084
10 0 59538   8262.000000  0   -2827066.280  -5055184.889  -3737500.683
10 0 59538   8382.000000  0   -3209108.648  -5339491.237  -2949373.819
10 0 59538   8502.000000  0   -3539323.857  -5524499.991  -2109475.698
10 0 59538   8622.000000  0   -3810139.242  -5607867.881  -1232514.689
10 0 59538   8742.000000  0   -4014993.440  -5589157.261   -333882.062
10 0 59538   8862.000000  0   -4148490.876  -5469832.906    570623.462
10 0 59538   8982.000000  0   -4206534.437  -5253220.385   1465081.250
10 0 59538   9102.000000  0   -4186432.497  -4944426.007   2333738.600
10 0 59538   9222.000000  0   -4086976.822  -4550220.277   3161296.917
10 0 59538   9342.000000  0   -3908490.432  -4078889.226   3933188.155
10 0 59538   9462.000000  0   -3652843.853  -3540056.890   4635836.744
10 0 59538   9582.000000  0   -3323439.161  -2944482.736   5256900.190
10 0 59538   9702.000000  0   -2925163.625  -2303841.266   5785483.831
10 0 59538   9822.000000  0   -2464313.954  -1630489.310   6212328.287
10 0 59538   9942.000000  0   -1948493.223   -937224.322   6529967.737
10 0 59538  10062.000000  0   -1386480.739   -237037.347   6732855.204
10 0 59538  10182.000000  0    -788079.487    457130.721   6817450.902
10 0 59538  10302.000000  0    -163945.585   1132626.619   6782280.166
10 0 59538  10422.000000  0     474601.139   1777314.910   6627958.040
10 0 59538  10542.000000  0    1115782.081   2379796.008   6357179.123
10 0 59538  10662.000000  0    1747576.280   2929607.424   5974672.766
10 0 59538  10782.000000  0    2357944.891   3417406.762   5487126.243
10 0 59538  10902.000000  0    2935061.542   3835134.521   4903074.824
10 0 59538  11022.000000  0    3467544.407   4176151.934   4232757.081
10 0 59538  11142.000000  0    3944682.315   4435350.262   3487940.149
10 0 59538  11262.000000  0    4356655.402   4609233.634   2681717.802
10 0 59538  11382.000000  0    4694742.708   4695967.657   1828276.823
10 0 59538  11502.000000  0    4951507.420   4695395.224    942644.564
10 0 59538  11622.000000  0    5120962.768   4609018.378     40418.116
10 0 59538  11742.000000  0    5198707.287   4439945.012   -862520.385
10 0 59538  11862.000000  0    5182027.468   4192802.672  -1750291.772
10 0 59538  11982.000000  0    5069967.527   3873622.394  -2607306.464
10 0 59538  12102.000000  0    4863363.702   3489695.291  -3418543.984
10 0 59538  12222.000000  0    4564841.973   3049406.826  -4169819.133
10 0 59538  12342.000000  0    4178780.066   2562052.458  -4848029.987
10 0 59538  12462.000000  0    3711235.927   2037638.537  -5441381.866
10 0 59538  12582.000000  0    3169844.964   1486675.081  -5939584.580
10 0 59538  12702.000000  0    2563687.923    919965.016  -6334021.038
10 0 59538  12822.000000  0    1903133.287    348393.724  -6617884.387
10 0 59538  12942.000000  0    1199658.998   -217276.351  -6786284.084
10 0 59538  13062.000000  0     465654.401   -766604.374  -6836323.031
10 0 59538  13182.000000  0    -285795.544  -1289659.486  -6767140.539
10 0 59538  13302.000000  0   -1041137.304  -1777194.957  -6579924.798
10 0 59538  13422.000000  0   -1786587.452  -2220807.950  -6277895.816
10 0 59538  13542.000000  0   -2508378.785  -2613082.601  -5866255.525
10 0 59538  13662.000000  0   -3193009.486  -2947713.307  -5352107.609
10 0 59538  13782.000000  0   -3827494.506  -3219608.529  -4744347.398
10 0 59538  13902.000000  0   -4399614.081  -3424971.837  -4053518.646
10 0 59538  14022.000000  0   -4898153.044  -3561357.593  -3291640.480
10 0 59538  14142.000000  0   -5313127.367  -3627700.889  -2472005.946
10 0 59538  14262.000000  0   -5635992.001  -3624320.085  -1608953.813
10 0 59538  14382.000000  0   -5859824.044  -3552891.030   -717617.890
10 0 59538  14502.000000  0   -5979477.018  -3416393.555    186341.640
10 0 59538  14622.000000  0   -5991701.885  -3219031.064   1087019.566
10 0 59538  14742.000000  0   -5895230.415  -2966124.752   1968555.217
10 0 59538  14862.000000  0   -5690816.729  -2663983.921   2815421.442
10 0 59538  14982.000000  0   -5381238.709  -2319757.864   3612705.387
10 0 59538  15102.000000  0   -4971258.640  -1941272.204   4346378.579
10 0 59538  15222.000000  0   -4467542.446  -1536852.661   5003546.691
10 0 59538  15342.000000  0   -3878543.456  -1115143.812   5572674.755
10 0 59538  15462.000000  0   -3214353.579   -684925.928   6043787.360
10 0 59538  15582.000000  0   -2486522.752   -254932.330   6408640.161
10 0 59538  15702.000000  0   -1707850.614    166327.437   6660857.752
10 0 59538  15822.000000  0    -892157.260    570733.800   6796037.832
10 0 59538  15942.000000  0     -54036.869    950712.022   6811823.131
10 0 59538  16062.000000  0     791402.914   1299373.154   6707939.652
10 0 59538  16182.000000  0    1628812.305   1610638.966   6486201.285
10 0 59538  16302.000000  0    2442877.105   1879348.088   6150479.622
10 0 59538  16422.000000  0    3218598.380   2101341.864   5706641.233
10 0 59538  16542.000000  0    3941571.453   2273529.299   5162451.218
10 0 59538  16662.000000  0    4598256.687   2393929.686   4527443.083
10 0 59538  16782.000000  0    5176238.698   2461693.121   3812758.617
10 0 59538  16902.000000  0    5664471.857   2477096.894   3030955.711
10 0 59538  17022.000000  0    6053498.387   2441516.630   2195786.070
10 0 59538  17142.000000  0    6335639.951   2357375.512   1321952.635
10 0 59538  17262.000000  0    6505156.663   2228070.164    424844.731
10 0 59538  17382.000000  0    6558367.244   2057875.901   -479741.230
10 0 59538  17502.000000  0    6493726.306   1851833.691  -1375889.492
10 0 59538  17622.000000  0    6311859.822   1615621.531  -2247851.424
10 0 59538  17742.000000  0    6015559.454   1355413.919  -3080329.933
10 0 59538  17862.000000  0    5609730.740   1077732.268  -3858753.038
10 0 59538  17982.000000  0    5101300.114    789291.185  -4569530.189
10 0 59538  18102.000000  0    4499083.424    496844.756  -5200286.287
10 0 59538  18222.000000  0    3813621.778    207036.092  -5740069.799
10 0 59538  18342.000000  0    3056988.080    -73746.150  -6179533.733
10 0 59538  18462.000000  0    2242567.384   -339501.851  -6511087.139
10 0 59538  18582.000000  0    1384817.553   -584741.919  -6729014.083
10 0 59538  18702.000000  0     499014.444   -804596.963  -6829563.298
10 0 59538  18822.000000  0    -399017.272   -994909.939  -6811005.526
10 0 59538  18942.000000  0   -1293180.026  -1152311.873  -6673659.130
10 0 59538  19062.000000  0   -2167385.319  -1274280.128  -6419885.982
10 0 59538  19182.000000  0   -3005837.105  -1359178.019  -6054054.187
10 0 59538  19302.000000  0   -3793310.858  -1406275.556  -5582470.949
10 0 59538  19422.000000  0   -4515429.299  -1415751.481  -5013286.011
10 0 59538  19542.000000  0   -5158927.940  -1388675.554  -4356361.790
10 0 59538  19662.000000  0   -5711904.612  -1326971.595  -3623113.436
10 0 59538  19782.000000  0   -6164049.592  -1233361.826  -2826319.521
10 0 59538  19902.000000  0   -6506849.616  -1111293.037  -1979904.511
10 0 59538  20022.000000  0   -6733760.323   -964846.090  -1098697.248
10 0 59538  20142.000000  0   -6840343.260   -798630.767   -198168.892
10 0 59538  20262.000000  0   -6824361.529   -617667.023    705844.960
10 0 59538  20382.000000  0   -6685831.630   -427257.395   1597430.102
10 0 59538  20502.000000  0   -6427030.382   -232853.732   2460883.041
10 0 59538  20622.000000  0   -6052455.910    -39920.777   3280996.508
10 0 59538  20742.000000  0   -5568743.440    146199.659   4043335.009
10 0 59538  20862.000000  0   -4984538.485    320419.843   4734493.549
10 0 59538  20982.000000  0   -4310331.743    478029.480   5342334.262
10 0 59538  21102.000000  0   -3558261.105    614809.120   5856197.258
10 0 59538  21222.000000  0   -2741884.267    727130.151   6267084.134
10 0 59538  21342.000000  0   -1875927.054    812039.309   6567810.231
10 0 59538  21462.000000  0    -976012.211    867327.469   6753124.541
10 0 59538  21582.000000  0     -58375.062    891580.301   6819794.507
10 0 59538  21702.000000  0     860428.860    884210.053   6766658.190
10 0 59538  21822.000000  0    1763821.086    845468.617   6594643.216
10 0 59538  21942.000000  0    2635498.072    776441.383   6306751.786
10 0 59538  22062.000000  0    3459725.348    679021.716   5908012.435
10 0 59538  22182.000000  0    4221624.056    555866.612   5405397.276
10 0 59538  22302.000000  0    4907443.207    410334.235   4807706.080
10 0 59538  22422.000000  0    5504814.516    246403.439   4125418.960
10 0 59538  22542.000000  0    6002985.333     68578.678   3370517.129
10 0 59538  22662.000000  0    6393022.869   -118218.052   2556273.663
10 0 59538  22782.000000  0    6667983.625   -308767.339   1697018.172
10 0 59538  22902.000000  0    6823045.446   -497681.789    807881.365
99
